[{"OBJECT_NAME":"TEIKYOSAT-4 (OORURI)","OBJECT_ID":"2021-102B","EPOCH":"2026-03-09T16:12:29.535840","MEAN_MOTION":15.09119208,"ECCENTRICITY":0.00103447,"INCLINATION":97.3797,"RA_OF_ASC_NODE":101.9931,"ARG_OF_PERICENTER":276.5421,"MEAN_ANOMALY":83.463,"EPHEMERIS_TYPE":0,"CLASSIFICATION_TYPE":"U","NORAD_CAT_ID":49396,"ELEMENT_SET_NO":999,"REV_AT_EPOCH":23771,"BSTAR":0.00015739844,"MEAN_MOTION_DOT":2.438e-5,"MEAN_MOTION_DDOT":0},{"OBJECT_NAME":"STARLINK-3456","OBJECT_ID":"2022-016AX","EPOCH":"2026-03-09T22:07:13.791360","MEAN_MOTION":15.08841542,"ECCENTRICITY":0.00015047,"INCLINATION":53.2182,"RA_OF_ASC_NODE":308.0846,"ARG_OF_PERICENTER":83.2398,"MEAN_ANOMALY":276.8765,"EPHEMERIS_TYPE":0,"CLASSIFICATION_TYPE":"U","NORAD_CAT_ID":51759,"ELEMENT_SET_NO":999,"REV_AT_EPOCH":22374,"BSTAR":1.3163329e-5,"MEAN_MOTION_DOT":-7.8e-7,"MEAN_MOTION_DDOT":0}]
